[{"OBJECT_NAME":"STARLINK-32917","OBJECT_ID":"2025-027Q","EPOCH":"2026-03-09T12:09:08.632224","MEAN_MOTION":15.27592054,"ECCENTRICITY":0.00013213,"INCLINATION":43.0025,"RA_OF_ASC_NODE":129.9579,"ARG_OF_PERICENTER":253.0192,"MEAN_ANOMALY":107.0515,"EPHEMERIS_TYPE":0,"CLASSIFICATION_TYPE":"U","NORAD_CAT_ID":62921,"ELEMENT_SET_NO":999,"REV_AT_EPOCH":6151,"BSTAR":0.0011730927,"MEAN_MOTION_DOT":0.00032172,"MEAN_MOTION_DDOT":0},{"OBJECT_NAME":"COSMOS 2251 DEB","OBJECT_ID":"1993-036RB","EPOCH":"2026-03-09T01:08:04.800192","MEAN_MOTION":15.30699894,"ECCENTRICITY":0.00252965,"INCLINATION":73.7308,"RA_OF_ASC_NODE":76.2904,"ARG_OF_PERICENTER":263.9966,"MEAN_ANOMALY":95.8352,"EPHEMERIS_TYPE":0,"CLASSIFICATION_TYPE":"U","NORAD_CAT_ID":34410,"ELEMENT_SET_NO":999,"REV_AT_EPOCH":91089,"BSTAR":0.003018315,"MEAN_MOTION_DOT":0.00091531,"MEAN_MOTION_DDOT":0}]
